*******************************************************************************
JPL/HORIZONS              136199 Eris (2003 UB313)         2014-Nov-22 06:58:42
Rec #:136199 (+COV)   Soln.date: 2014-Nov-10_16:29:51    # obs: 614 (1954-2014)
 
FK5/J2000.0 helio. ecliptic osc. elements (au, days, deg., period=Julian yrs): 
 
  EPOCH=  2454122.5 ! 2007-Jan-22.00 (CT)          Residual RMS= .28328        
   EC= .4403477477905744   QR= 37.89836308926778   TP= 2545767.7289029327      
   OM= 35.8808697700297    W=  151.5308240623279   IN= 44.16630213676559       
   A= 67.71769958871882    MA= 197.9083513503301   ADIST= 97.53703608816986    
   PER= 557.26467          N= .001768686           ANGMOM= .127094087          
   DAN= 89.06291           DDN= 39.35325           L= 194.626141               
   B= 19.3979681           MOID= 36.95370102       TP= 2257-Dec-22.2289029327  
 
Asteroid physical parameters (km, seconds, rotational period in hours):        
   GM= n.a.                RAD= n.a.               ROTPER= 25.9                
   H= -1.2                 G= .150                 B-V= n.a.                   
                           ALBEDO= n.a.            STYP= n.a.                  
 
ASTEROID comments: 
1: soln ref.= JPL#49, OCC=3
2: source=ORB
*******************************************************************************
 
 
*******************************************************************************
Ephemeris / WWW_USER Sat Nov 22 06:58:42 2014 Pasadena, USA      / Horizons    
*******************************************************************************
Target body name: 136199 Eris (2003 UB313)        {source: JPL#49}
Center body name: Earth (399)                     {source: DE-0431LE-0431}
Center-site name: San Pedro Martir
*******************************************************************************
Start time      : A.D. 2014-Jan-01 00:00:00.0000 UT      
Stop  time      : A.D. 2016-Dec-31 00:00:00.0000 UT      
Step-size       : 1440 minutes
*******************************************************************************
Target pole/equ : No model available
Target radii    : (unavailable)                                                
Center geodetic : 244.536700,31.0434585,2.8281109 {E-lon(deg),Lat(deg),Alt(km)}
Center cylindric: 244.536700,5471.93108,3271.4810 {E-lon(deg),Dxy(km),Dz(km)}
Center pole/equ : High-precision EOP model        {East-longitude +}
Center radii    : 6378.1 x 6378.1 x 6356.8 km     {Equator, meridian, pole}    
Target primary  : Sun
Vis. interferer : MOON (R_eq= 1737.400) km        {source: DE-0431LE-0431}
Rel. light bend : Sun, EARTH                      {source: DE-0431LE-0431}
Rel. lght bnd GM: 1.3271E+11, 3.9860E+05 km^3/s^2                              
Small-body perts: Yes                             {source: SB431-BIG16}
Atmos refraction: NO (AIRLESS)
RA format       : DEG
Time format     : BOTH
EOP file        : eop.141121.p150212                                           
EOP coverage    : DATA-BASED 1962-JAN-20 TO 2014-NOV-21. PREDICTS-> 2015-FEB-11
Units conversion: 1 au= 149597870.700 km, c= 299792.458 km/s, 1 day= 86400.0 s 
Table cut-offs 1: Elevation (-90.0deg=NO ),Airmass (>38.000=NO), Daylight (NO )
Table cut-offs 2: Solar Elongation (  0.0,180.0=NO ),Local Hour Angle( 0.0=NO )
*******************************************************************************
Initial FK5/J2000.0 heliocentric ecliptic osculating elements (au, days, deg.):
  EPOCH=  2454122.5 ! 2007-Jan-22.00 (CT)          Residual RMS= .28328        
   EC= .4403477477905744   QR= 37.89836308926778   TP= 2545767.7289029327      
   OM= 35.8808697700297    W=  151.5308240623279   IN= 44.16630213676559       
Asteroid physical parameters (km, seconds, rotational period in hours):        
   GM= n.a.                RAD= n.a.               ROTPER= 25.9                
   H= -1.2                 G= .150                 B-V= n.a.                   
                           ALBEDO= n.a.            STYP= n.a.                  
************************************************************************************************************
 Date__(UT)__HR:MN Date_________JDUT     R.A._(J2000.0)_DEC. dRA*cosD d(DEC)/dt            delta      deldot
************************************************************************************************************
$$SOE
 2014-Jan-01 00:00 2456658.500000000 *m   24.82442  -3.57582 -0.37624  0.310374 96.2384683960394  28.3634549
 2014-Jan-02 00:00 2456659.500000000 *m   24.82209  -3.57371 -0.35168  0.321335 96.2550256970193  28.4671131
 2014-Jan-03 00:00 2456660.500000000 *m   24.81993  -3.57153 -0.32699  0.332214 96.2716369465007  28.5609228
 2014-Jan-04 00:00 2456661.500000000 *m   24.81794  -3.56928 -0.30221  0.343002 96.2882964124036  28.6448924
 2014-Jan-05 00:00 2456662.500000000 *m   24.81611  -3.56695 -0.27735  0.353696 96.3049983945891  28.7191170
 2014-Jan-06 00:00 2456663.500000000 *m   24.81445  -3.56455 -0.25242  0.364291 96.3217372666944  28.7837477
 2014-Jan-07 00:00 2456664.500000000 *m   24.81296  -3.56209 -0.22745  0.374786 96.3385074983861  28.8389572
 2014-Jan-08 00:00 2456665.500000000 *m   24.81164  -3.55955 -0.20244  0.385178 96.3553036596912  28.8849136
 2014-Jan-09 00:00 2456666.500000000 *m   24.81048  -3.55694 -0.17739  0.395468 96.3721204136433  28.9217660
 2014-Jan-10 00:00 2456667.500000000 *m   24.80950  -3.55427 -0.15232  0.405653 96.3889525038115  28.9496407
 2014-Jan-11 00:00 2456668.500000000 *m   24.80868  -3.55153 -0.12723  0.415734 96.4057947412609  28.9686421
 2014-Jan-12 00:00 2456669.500000000 *m   24.80803  -3.54872 -0.10213  0.425708 96.4226419931099  28.9788569
 2014-Jan-13 00:00 2456670.500000000 *m   24.80755  -3.54584 -0.07701  0.435576 96.4394891731177  28.9803570
 2014-Jan-14 00:00 2456671.500000000 *m   24.80724  -3.54290 -0.05188  0.445336 96.4563312338286  28.9732014
 2014-Jan-15 00:00 2456672.500000000 *    24.80710  -3.53990 -0.02676  0.454987 96.4731631595278  28.9574373
 2014-Jan-16 00:00 2456673.500000000 *    24.80712  -3.53683 -0.00163  0.464528 96.4899799593741  28.9330999
 2014-Jan-17 00:00 2456674.500000000 *    24.80732  -3.53370 0.023493  0.473957 96.5067766603600  28.9002121
 2014-Jan-18 00:00 2456675.500000000 *    24.80768  -3.53051 0.048610  0.483272 96.5235483000606  28.8587839
 2014-Jan-19 00:00 2456676.500000000 *    24.80822  -3.52725 0.073717  0.492472 96.5402899193298  28.8088130
 2014-Jan-20 00:00 2456677.500000000 *    24.80892  -3.52393 0.098811  0.501556 96.5569965551392  28.7502846
 2014-Jan-21 00:00 2456678.500000000 *    24.80979  -3.52056 0.123887  0.510520 96.5736632336053  28.6831720
 2014-Jan-22 00:00 2456679.500000000 *    24.81082  -3.51712 0.148943  0.519363 96.5902849629802  28.6074361
 2014-Jan-23 00:00 2456680.500000000 *    24.81203  -3.51363 0.173975  0.528082 96.6068567260982  28.5230239
 2014-Jan-24 00:00 2456681.500000000 *    24.81340  -3.51007 0.198977  0.536673 96.6233734716205  28.4298658
 2014-Jan-25 00:00 2456682.500000000 *    24.81494  -3.50647 0.223944  0.545134 96.6398301036101  28.3278725
 2014-Jan-26 00:00 2456683.500000000 *    24.81665  -3.50280 0.248871  0.553461 96.6562214697102  28.2169341
 2014-Jan-27 00:00 2456684.500000000 *    24.81853  -3.49908 0.273748  0.561649 96.6725423496916  28.0969228
 2014-Jan-28 00:00 2456685.500000000 *    24.82057  -3.49531 0.298566  0.569691 96.6887874483005  27.9677056
 2014-Jan-29 00:00 2456686.500000000 *    24.82277  -3.49148 0.323308  0.577582 96.7049513983847  27.8291675
 2014-Jan-30 00:00 2456687.500000000 *m   24.82515  -3.48760 0.347958  0.585315 96.7210287804917  27.6812442
 2014-Jan-31 00:00 2456688.500000000 *m   24.82768  -3.48367 0.372495  0.592883 96.7370141615481  27.5239533
 2014-Feb-01 00:00 2456689.500000000 *m   24.83039  -3.47969 0.396899  0.600282 96.7529021478440  27.3574101
 2014-Feb-02 00:00 2456690.500000000 *m   24.83325  -3.47566 0.421151  0.607507 96.7686874400970  27.1818187
 2014-Feb-03 00:00 2456691.500000000 *m   24.83628  -3.47158 0.445237  0.614558 96.7843648763560  26.9974404
 2014-Feb-04 00:00 2456692.500000000 *m   24.83946  -3.46746 0.469144  0.621433 96.7999294539389  26.8045552
 2014-Feb-05 00:00 2456693.500000000 *m   24.84281  -3.46329 0.492866  0.628133 96.8153763305368  26.6034303
 2014-Feb-06 00:00 2456694.500000000 *m   24.84631  -3.45908 0.516397  0.634659 96.8307008111800  26.3943032
 2014-Feb-07 00:00 2456695.500000000 *m   24.84997  -3.45483 0.539735  0.641013 96.8458983293223  26.1773773
 2014-Feb-08 00:00 2456696.500000000 *m   24.85378  -3.45053 0.562875  0.647195 96.8609644282177  25.9528265
 2014-Feb-09 00:00 2456697.500000000 *m   24.85775  -3.44619 0.585817  0.653205 96.8758947456527  25.7208015
 2014-Feb-10 00:00 2456698.500000000 *m   24.86188  -3.44182 0.608556  0.659045 96.8906850026412  25.4814367
 2014-Feb-11 00:00 2456699.500000000 *m   24.86615  -3.43740 0.631092  0.664714 96.9053309953085  25.2348544
 2014-Feb-12 00:00 2456700.500000000 *m   24.87057  -3.43295 0.653422  0.670213 96.9198285886801  24.9811670
 2014-Feb-13 00:00 2456701.500000000 *m   24.87514  -3.42846 0.675543  0.675541 96.9341737110938  24.7204774
 2014-Feb-14 00:00 2456702.500000000 *    24.87986  -3.42394 0.697456  0.680700 96.9483623482270  24.4528770
 2014-Feb-15 00:00 2456703.500000000 *    24.88472  -3.41938 0.719157  0.685688 96.9623905361285  24.1784444
 2014-Feb-16 00:00 2456704.500000000 *    24.88973  -3.41479 0.740646  0.690506 96.9762543530765  23.8972430
 2014-Feb-17 00:00 2456705.500000000 *    24.89488  -3.41017 0.761922  0.695154 96.9899499104581  23.6093200
 2014-Feb-18 00:00 2456706.500000000 *    24.90017  -3.40552 0.782982  0.699630 97.0034733431125  23.3147055
 2014-Feb-19 00:00 2456707.500000000 *    24.90560  -3.40084 0.803825  0.703933 97.0168207996423  23.0134133
 2014-Feb-20 00:00 2456708.500000000 *    24.91117  -3.39613 0.824448  0.708063 97.0299884330897  22.7054412
